OBJECT_NAME,OBJECT_ID,EPOCH,MEAN_MOTION,ECCENTRICITY,INCLINATION,RA_OF_ASC_NODE,ARG_OF_PERICENTER,MEAN_ANOMALY,EPHEMERIS_TYPE,CLASSIFICATION_TYPE,NORAD_CAT_ID,ELEMENT_SET_NO,REV_AT_EPOCH,BSTAR,MEAN_MOTION_DOT,MEAN_MOTION_DDOT
COSMO-SKYMED 1,2007-023A,2026-06-14T12:40:49.332864,14.97087772,.0001103,97.8840,357.3620,97.6236,262.5110,0,U,31598,999,2939,.20845E-3,.2344E-4,0
COSMOS 2428,2007-029A,2026-06-14T12:34:54.092352,14.12928555,.0007155,70.9370,0.0691,140.0310,220.1339,0,U,31792,999,97777,-.43919E-4,-.13E-5,0
SL-16 R/B,2007-029B,2026-06-14T11:50:21.397344,14.14853968,.0002274,70.9767,328.8914,261.4177,158.3443,0,U,31793,999,97906,.13137E-3,.206E-5,0
KORONAS-FOTON,2009-003A,2026-06-14T11:44:07.594656,15.45677403,.0011395,82.4280,175.0740,156.3350,203.8425,0,U,33504,999,96068,.20687E-3,.10041E-3,0
CZ-2C R/B,2011-030B,2026-06-14T11:37:25.304160,14.81465382,.0053257,97.8654,120.9192,36.6388,77.5190,0,U,37731,999,80442,.15136E-3,.116E-4,0
H-2A R/B,2012-025E,2026-06-14T11:32:38.640192,14.95705694,.004381,98.4824,140.4035,358.2410,1.8647,0,U,38341,999,76268,.29708E-3,.3301E-4,0
SHIJIAN-16 (SJ-16),2013-057A,2026-06-14T11:47:26.185920,14.92601572,.0016834,74.9732,1.7902,237.1478,122.8091,0,U,39358,999,68594,.83075E-4,.827E-5,0
SL-4 R/B,2014-021B,2026-06-14T09:45:30.144960,15.41905430,.0091355,51.6048,224.3944,95.8219,265.3189,0,U,39679,999,67118,.20017E-3,.9592E-4,0
ALOS-2,2014-029A,2026-06-14T13:39:31.440096,14.79479885,.0001586,97.9222,262.7704,97.0240,263.1151,0,U,39766,999,65119,.1707E-3,.1224E-4,0
YAOGAN-29,2015-069A,2026-06-14T13:07:02.383104,14.83082736,.0002741,98.0030,194.1752,58.0015,302.1464,0,U,41038,999,57023,.33918E-4,.222E-5,0
ASTRO-H (HITOMI),2016-012A,2026-06-14T03:02:27.619584,15.10498939,.0009751,30.9991,93.9524,223.3647,136.6224,0,U,41337,999,56682,.14075146E-3,.2474E-4,0
HXMT (HUIYAN),2017-034A,2026-06-14T12:04:36.450624,15.18464312,.0030328,43.0126,197.9867,129.5946,230.7587,0,U,42758,999,49725,.16189E-3,.3191E-4,0
SAOCOM 1A,2018-076A,2026-06-14T12:04:28.869024,14.82147797,.0001603,97.8880,352.2910,79.4988,280.6406,0,U,43641,999,41570,.64245E-4,.459E-5,0
H-2A R/B,2018-084L,2026-06-14T09:47:55.887072,15.45060208,.0023753,98.8586,43.6915,49.9657,310.3666,0,U,43682,999,42069,.4173E-3,.19833E-3,0
SAOCOM 1B,2020-059A,2026-06-14T03:06:09.457632,14.82167626,.00014547,97.8882,351.0173,80.9112,279.2265,0,U,46265,999,31303,.40499752E-4,.27E-5,0
CSS (TIANHE),2021-035A,2026-06-14T11:33:21.396096,15.60702821,.0007663,41.4694,338.4665,55.4779,304.6783,0,U,48274,999,29274,.26802E-3,.22654E-3,0
COSMOS 2550,2021-056A,2026-06-14T13:06:31.083840,15.33826600,.0008406,67.1427,107.8946,268.1250,91.8942,0,U,48865,999,27831,.59111E-4,.1753E-4,0
CZ-2C R/B,2022-058K,2026-06-14T11:46:56.495424,15.61678170,.0032628,50.1837,177.5461,256.8590,102.8742,0,U,52794,999,22522,.38947E-3,.3481E-3,0
CZ-2C R/B,2022-132E,2026-06-14T11:28:03.184032,15.71219848,.0016413,97.2891,172.3818,92.4540,267.8602,0,U,54039,999,20552,.41749E-3,.53221E-3,0
GSLV R/B,2022-138AN,2026-06-14T10:39:55.645920,14.97244885,.0022451,87.3799,133.9050,152.9188,207.3220,0,U,54149,999,19840,.22507E-3,.2646E-4,0
XRISM,2023-137A,2026-06-14T06:53:04.538112,15.12442568,.0007975,31.0031,18.3881,295.0173,64.9638,0,U,57800,999,15242,.2581E-3,.4699E-4,0
ACS3,2024-077B,2026-06-14T11:28:03.280800,13.93844868,.0068433,97.1679,84.8690,65.8786,294.9518,0,U,59588,999,10766,.64937E-2,.871E-4,0
CZ-8A R/B,2025-231K,2026-06-13T21:47:06.252000,14.30154115,.0116473,50.0054,53.2684,212.4566,146.9149,0,U,66004,999,3447,.38923E-4,-.54E-6,0
SZ-21 MODULE,2025-246C,2026-06-13T17:32:52.137600,15.76117488,.00067511,41.4731,328.8460,328.3391,31.7047,0,U,66515,999,3319,.28446481E-3,.45764E-3,0
