COSMO-SKYMED 1          
1 31598U 07023A   26165.52834876  .00002344  00000+0  20845-3 0  9995
2 31598  97.8840 357.3620 0001103  97.6236 262.5110 14.97087772 29390
COSMOS 2428             
1 31792U 07029A   26165.52423718 -.00000130  00000+0 -43919-4 0  9997
2 31792  70.9370   0.0691 0007155 140.0310 220.1339 14.12928555977772
SL-16 R/B               
1 31793U 07029B   26165.49330321  .00000206  00000+0  13137-3 0  9991
2 31793  70.9767 328.8914 0002274 261.4177 158.3443 14.14853968979067
KORONAS-FOTON           
1 33504U 09003A   26165.48897679  .00010041  00000+0  20687-3 0  9996
2 33504  82.4280 175.0740 0011395 156.3350 203.8425 15.45677403960682
CZ-2C R/B               
1 37731U 11030B   26165.48432065  .00001160  00000+0  15136-3 0  9994
2 37731  97.8654 120.9192 0053257  36.6388  77.5190 14.81465382804421
H-2A R/B                
1 38341U 12025E   26165.48100278  .00003301  00000+0  29708-3 0  9994
2 38341  98.4824 140.4035 0043810 358.2410   1.8647 14.95705694762687
SHIJIAN-16 (SJ-16)      
1 39358U 13057A   26165.49127530  .00000827  00000+0  83075-4 0  9998
2 39358  74.9732   1.7902 0016834 237.1478 122.8091 14.92601572685947
SL-4 R/B                
1 39679U 14021B   26165.40659890  .00009592  00000+0  20017-3 0  9990
2 39679  51.6048 224.3944 0091355  95.8219 265.3189 15.41905430671184
ALOS-2                  
1 39766U 14029A   26165.56911389  .00001224  00000+0  17070-3 0  9995
2 39766  97.9222 262.7704 0001586  97.0240 263.1151 14.79479885651197
YAOGAN-29               
1 41038U 15069A   26165.54655536  .00000222  00000+0  33918-4 0  9999
2 41038  98.0030 194.1752 0002741  58.0015 302.1464 14.83082736570239
ASTRO-H (HITOMI)        
1 41337U 16012A   26165.12670856  .00002474  00000+0  14075-3 0  9999
2 41337  30.9991  93.9524 0009751 223.3647 136.6224 15.10498939566822
HXMT (HUIYAN)           
1 42758U 17034A   26165.50319966  .00003191  00000+0  16189-3 0  9991
2 42758  43.0126 197.9867 0030328 129.5946 230.7587 15.18464312497257
SAOCOM 1A               
1 43641U 18076A   26165.50311191  .00000459  00000+0  64245-4 0  9993
2 43641  97.8880 352.2910 0001603  79.4988 280.6406 14.82147797415700
H-2A R/B                
1 43682U 18084L   26165.40828573  .00019833  00000+0  41730-3 0  9992
2 43682  98.8586  43.6915 0023753  49.9657 310.3666 15.45060208420694
SAOCOM 1B               
1 46265U 20059A   26165.12927613  .00000270  00000+0  40500-4 0  9991
2 46265  97.8882 351.0173 0001454  80.9112 279.2265 14.82167626313038
CSS (TIANHE)            
1 48274U 21035A   26165.48149764  .00022654  00000+0  26802-3 0  9998
2 48274  41.4694 338.4665 0007663  55.4779 304.6783 15.60702821292746
COSMOS 2550             
1 48865U 21056A   26165.54619310  .00001753  00000+0  59111-4 0  9990
2 48865  67.1427 107.8946 0008406 268.1250  91.8942 15.33826600278315
CZ-2C R/B               
1 52794U 22058K   26165.49093166  .00034810  00000+0  38947-3 0  9991
2 52794  50.1837 177.5461 0032628 256.8590 102.8742 15.61678170225229
CZ-2C R/B               
1 54039U 22132E   26165.47781463  .00053221  00000+0  41749-3 0  9991
2 54039  97.2891 172.3818 0016413  92.4540 267.8602 15.71219848205529
GSLV R/B                
1 54149U 22138AN  26165.44439405  .00002646  00000+0  22507-3 0  9998
2 54149  87.3799 133.9050 0022451 152.9188 207.3220 14.97244885198407
XRISM                   
1 57800U 23137A   26165.28685808  .00004699  00000+0  25810-3 0  9997
2 57800  31.0031  18.3881 0007975 295.0173  64.9638 15.12442568152422
ACS3                    
1 59588U 24077B   26165.47781575  .00008710  00000+0  64937-2 0  9995
2 59588  97.1679  84.8690 0068433  65.8786 294.9518 13.93844868107667
CZ-8A R/B               
1 66004U 25231K   26164.90771125 -.00000054  00000+0  38923-4 0  9998
2 66004  50.0054  53.2684 0116473 212.4566 146.9149 14.30154115 34475
SZ-21 MODULE            
1 66515U 25246C   26164.73115900  .00045764  00000+0  28446-3 0  9999
2 66515  41.4731 328.8460 0006751 328.3391  31.7047 15.76117488 33190
